{
"type": "FeatureCollection",
"name": "africa_disputed",
"crs": { "type": "name", "properties": { "name": "urn:ogc:def:crs:OGC:1.3:CRS84" } },
"xy_coordinate_resolution": 1e-05,
"features": [
{ "type": "Feature", "properties": { "pol_stat": 2 }, "geometry": { "type": "LineString", "coordinates": [ [ 47.91371, 7.93174 ], [ 47.55707, 7.56095 ], [ 46.52148, 6.53052 ], [ 45.41093, 5.53638 ], [ 45.00017, 4.95437 ], [ 44.79943, 4.92656 ], [ 44.58958, 4.93191 ], [ 44.01527, 4.93884 ], [ 43.46927, 4.80604 ], [ 43.08058, 4.59723 ], [ 42.88416, 4.30698 ], [ 42.52149, 4.20531 ], [ 42.10542, 4.17475 ], [ 41.94721, 4.04888 ], [ 41.90675, 3.98268 ] ] } },
{ "type": "Feature", "properties": { "pol_stat": 2 }, "geometry": { "type": "MultiLineString", "coordinates": [ [ [ 34.10597, 9.5 ], [ 33.90012, 9.51156 ], [ 33.89189, 9.65655 ], [ 33.98349, 9.89802 ], [ 33.97307, 10.11906 ], [ 33.52413, 10.62713 ], [ 33.33819, 10.73198 ], [ 33.26414, 10.78859 ], [ 33.14643, 11.42277 ], [ 33.17084, 11.67454 ], [ 33.25011, 12.21992 ], [ 32.75499, 12.22635 ], [ 32.70491, 11.9541 ], [ 32.09659, 11.95105 ], [ 32.38425, 11.69075 ], [ 32.44415, 11.03072 ], [ 31.98921, 10.63919 ], [ 31.82469, 10.36317 ], [ 31.35025, 9.80884 ], [ 30.83427, 9.71175 ], [ 30.46301, 10.00162 ], [ 30.0348, 10.26465 ], [ 29.92184, 10.27822 ], [ 29.55881, 10.07935 ], [ 29.51454, 9.76207 ], [ 29.11825, 9.74876 ], [ 29.00037, 9.67023 ] ], [ [ 27.90722, 9.61016 ], [ 27.16509, 9.62104 ], [ 26.65656, 9.50608 ], [ 26.3497, 9.62027 ], [ 26.21923, 9.90128 ], [ 25.95111, 10.17772 ], [ 25.92294, 10.36467 ], [ 25.84593, 10.41398 ], [ 25.1074, 10.3058 ], [ 25.0237, 9.98919 ], [ 24.7489, 9.75989 ], [ 24.74258, 9.65655 ], [ 24.74033, 9.50446 ], [ 24.6142, 9.36637 ], [ 24.55543, 8.89539 ], [ 24.23447, 8.64497 ] ] ] } },
{ "type": "Feature", "properties": { "pol_stat": 1 }, "geometry": { "type": "MultiLineString", "coordinates": [ [ [ 10.67966, 1.00258 ], [ 10.75033, 1.0027 ], [ 10.95185, 1.00303 ] ], [ [ 11.34786, 1.67434 ], [ 11.37367, 1.69719 ], [ 11.37861, 1.75339 ], [ 11.39757, 1.86098 ], [ 11.34932, 1.91526 ], [ 11.35444, 2.13445 ] ] ] } },
{ "type": "Feature", "properties": { "pol_stat": 1 }, "geometry": { "type": "MultiLineString", "coordinates": [ [ [ 10.95185, 1.00303 ], [ 10.94959, 1.02734 ], [ 10.78712, 1.02653 ], [ 10.67966, 1.00258 ] ], [ [ 11.35444, 2.13445 ], [ 11.3261, 2.0485 ], [ 11.34842, 1.91612 ], [ 11.34801, 1.74207 ], [ 11.34786, 1.67434 ] ] ] } },
{ "type": "Feature", "properties": { "pol_stat": 2 }, "geometry": { "type": "LineString", "coordinates": [ [ 33.16666, 22.0 ], [ 33.38507, 21.8445 ], [ 33.46885, 21.78486 ], [ 33.55292, 21.725 ], [ 33.97816, 21.7715 ], [ 34.07986, 22.00001 ] ] } },
{ "type": "Feature", "properties": { "pol_stat": 5 }, "geometry": { "type": "LineString", "coordinates": [ [ 34.9863, 31.96778 ], [ 35.00283, 31.84448 ], [ 35.14921, 31.79041 ], [ 35.14112, 31.74728 ] ] } },
{ "type": "Feature", "properties": { "pol_stat": 5 }, "geometry": { "type": "LineString", "coordinates": [ [ 35.14112, 31.74728 ], [ 35.17869, 31.77735 ], [ 34.9863, 31.96778 ] ] } },
{ "type": "Feature", "properties": { "pol_stat": 2 }, "geometry": { "type": "LineString", "coordinates": [ [ 35.61959, 23.1461 ], [ 35.21682, 22.80359 ], [ 34.9457, 22.8362 ], [ 34.68342, 22.31073 ], [ 34.17761, 22.2037 ], [ 34.07986, 22.00001 ] ] } },
{ "type": "Feature", "properties": { "pol_stat": 2 }, "geometry": { "type": "LineString", "coordinates": [ [ 35.50858, 4.61713 ], [ 35.43553, 4.76387 ], [ 35.45675, 4.89847 ], [ 35.33511, 4.92014 ], [ 35.30244, 5.00617 ], [ 34.52602, 4.74238 ], [ 34.3875, 4.61 ] ] } },
{ "type": "Feature", "properties": { "pol_stat": 5 }, "geometry": { "type": "MultiLineString", "coordinates": [ [ [ 34.2675, 31.22013 ], [ 34.32581, 31.25797 ], [ 34.37299, 31.37375 ], [ 34.42677, 31.42717 ], [ 34.51814, 31.50172 ], [ 34.54767, 31.5441 ], [ 34.49125, 31.59499 ] ], [ [ 35.14112, 31.74728 ], [ 34.96091, 31.60304 ], [ 34.89777, 31.4048 ], [ 34.94448, 31.35108 ], [ 35.20304, 31.37386 ], [ 35.47598, 31.49312 ] ], [ [ 35.55492, 32.38902 ], [ 35.20919, 32.54244 ], [ 35.04172, 32.37769 ], [ 34.97822, 32.18462 ], [ 34.9863, 31.96778 ] ] ] } }
]
}
