{
"type": "FeatureCollection",
"name": "me_gulf_countries",
"crs": { "type": "name", "properties": { "name": "urn:ogc:def:crs:OGC:1.3:CRS84" } },
"xy_coordinate_resolution": 1e-05,
"features": [
{ "type": "Feature", "properties": { "iso3": "ARE", "name": "United Arab Emirates" }, "geometry": { "type": "MultiPolygon", "coordinates": [ [ [ [ 51.99393, 24.24949 ], [ 52.02904, 24.2672 ], [ 52.0271, 24.21354 ], [ 51.98131, 24.19729 ], [ 51.99393, 24.24949 ] ] ], [ [ [ 53.29627, 24.31219 ], [ 53.33668, 24.30904 ], [ 53.32061, 24.28046 ], [ 53.25324, 24.26901 ], [ 53.23079, 24.28462 ], [ 53.29627, 24.31219 ] ] ], [ [ [ 52.64841, 24.36459 ], [ 52.61314, 24.25202 ], [ 52.53612, 24.30156 ], [ 52.57909, 24.3734 ], [ 52.64841, 24.36459 ] ] ], [ [ [ 53.1008, 24.35689 ], [ 53.11046, 24.3015 ], [ 53.05622, 24.3147 ], [ 53.06697, 24.35084 ], [ 53.1008, 24.35689 ] ] ], [ [ [ 52.34377, 24.49304 ], [ 52.30986, 24.47458 ], [ 52.26907, 24.51184 ], [ 52.32581, 24.54166 ], [ 52.34377, 24.49304 ] ] ], [ [ [ 51.74332, 24.61006 ], [ 51.72882, 24.55481 ], [ 51.68674, 24.57084 ], [ 51.71103, 24.61379 ], [ 51.74332, 24.61006 ] ] ], [ [ [ 53.03228, 24.90051 ], [ 53.06018, 24.91798 ], [ 53.08332, 24.90905 ], [ 53.08922, 24.85711 ], [ 53.07086, 24.85917 ], [ 53.03228, 24.90051 ] ] ], [ [ [ 53.84757, 24.2638 ], [ 53.96338, 24.17169 ], [ 53.93405, 24.1397 ], [ 53.84757, 24.15265 ], [ 53.76379, 24.12709 ], [ 53.63523, 24.16755 ], [ 53.72688, 24.22953 ], [ 53.84757, 24.2638 ] ] ], [ [ [ 53.44412, 24.1969 ], [ 53.4046, 24.1816 ], [ 53.36311, 24.20353 ], [ 53.41665, 24.23043 ], [ 53.44412, 24.1969 ] ] ], [ [ [ 56.20362, 24.82381 ], [ 56.17824, 24.76881 ], [ 56.10366, 24.73602 ], [ 56.07638, 24.73945 ], [ 56.00255, 24.86233 ], [ 56.057, 24.87205 ], [ 56.04496, 24.95701 ], [ 55.96114, 25.00563 ], [ 55.83001, 24.93438 ], [ 55.82069, 24.79365 ], [ 55.83092, 24.67946 ], [ 55.76772, 24.54599 ], [ 55.81928, 24.44135 ], [ 55.83056, 24.33611 ], [ 55.77232, 24.24599 ], [ 55.83341, 24.20802 ], [ 55.94531, 24.2156 ], [ 56.0073, 24.07302 ], [ 55.83328, 24.02084 ], [ 55.7255, 24.05366 ], [ 55.4999, 23.95026 ], [ 55.56899, 23.63396 ], [ 55.37052, 23.33605 ], [ 55.22783, 23.05971 ], [ 55.21137, 22.70542 ], [ 55.10727, 22.63607 ], [ 52.61609, 22.93531 ], [ 52.48131, 23.05971 ], [ 51.60706, 24.10829 ], [ 51.58994, 24.25357 ], [ 51.5921, 24.26835 ], [ 51.61058, 24.29242 ], [ 51.66013, 24.23374 ], [ 51.75753, 24.24675 ], [ 51.79792, 24.04904 ], [ 51.93013, 23.97811 ], [ 52.26415, 23.98839 ], [ 52.61415, 24.17747 ], [ 52.78713, 24.13692 ], [ 53.15761, 24.15007 ], [ 53.26984, 24.11313 ], [ 53.46653, 24.10808 ], [ 53.61805, 24.0559 ], [ 53.84476, 24.06626 ], [ 54.09207, 24.163 ], [ 54.06501, 24.20219 ], [ 54.09325, 24.25712 ], [ 54.20884, 24.36304 ], [ 54.264, 24.30368 ], [ 54.22769, 24.27153 ], [ 54.23963, 24.25343 ], [ 54.43066, 24.29997 ], [ 54.47204, 24.38783 ], [ 54.34249, 24.42987 ], [ 54.35868, 24.49789 ], [ 54.4224, 24.53299 ], [ 54.44985, 24.45789 ], [ 54.56699, 24.46585 ], [ 54.61489, 24.55868 ], [ 54.61295, 24.63595 ], [ 54.65678, 24.67547 ], [ 54.68802, 24.77533 ], [ 54.77482, 24.77714 ], [ 54.77955, 24.83819 ], [ 54.89425, 24.90997 ], [ 54.96805, 24.98529 ], [ 55.03532, 24.99648 ], [ 55.09634, 25.04668 ], [ 55.29826, 25.28998 ], [ 55.34978, 25.31223 ], [ 55.42312, 25.39864 ], [ 55.47232, 25.45071 ], [ 55.52116, 25.51909 ], [ 55.55492, 25.55556 ], [ 55.62831, 25.54244 ], [ 55.64332, 25.62057 ], [ 55.74775, 25.65815 ], [ 55.9587, 25.81819 ], [ 56.01266, 25.87558 ], [ 56.08646, 26.05045 ], [ 56.15142, 26.0594 ], [ 56.18539, 25.99604 ], [ 56.14255, 25.81819 ], [ 56.16087, 25.66029 ], [ 56.26615, 25.60628 ], [ 56.28216, 25.61517 ], [ 56.35486, 25.57878 ], [ 56.36527, 25.42016 ], [ 56.38117, 25.32389 ], [ 56.35988, 25.09882 ], [ 56.37533, 24.98058 ], [ 56.32328, 24.97236 ], [ 56.32872, 24.91286 ], [ 56.20362, 24.82381 ] ], [ [ 56.26662, 25.32932 ], [ 56.22411, 25.26321 ], [ 56.23079, 25.23885 ], [ 56.28565, 25.23658 ], [ 56.33576, 25.26443 ], [ 56.34898, 25.3065 ], [ 56.26662, 25.32932 ] ] ], [ [ [ 54.3448, 24.37665 ], [ 54.3197, 24.32166 ], [ 54.26624, 24.33377 ], [ 54.29835, 24.38939 ], [ 54.3448, 24.37665 ] ] ], [ [ [ 53.36224, 24.58493 ], [ 53.3267, 24.56719 ], [ 53.27432, 24.592 ], [ 53.32292, 24.61338 ], [ 53.36224, 24.58493 ] ] ], [ [ [ 55.1391, 25.25078 ], [ 55.16402, 25.24019 ], [ 55.16215, 25.20031 ], [ 55.13269, 25.18814 ], [ 55.11331, 25.19429 ], [ 55.1391, 25.25078 ] ] ], [ [ [ 54.25089, 25.21306 ], [ 54.21023, 25.20792 ], [ 54.18078, 25.23179 ], [ 54.22878, 25.26051 ], [ 54.25089, 25.21306 ] ] ] ] } },
{ "type": "Feature", "properties": { "iso3": "BHR", "name": "Bahrain" }, "geometry": { "type": "MultiPolygon", "coordinates": [ [ [ [ 50.81079, 25.63886 ], [ 50.7457, 25.60579 ], [ 50.73091, 25.65659 ], [ 50.7851, 25.71792 ], [ 50.81079, 25.63886 ] ] ], [ [ [ 50.64465, 26.15914 ], [ 50.6187, 26.09054 ], [ 50.61272, 25.86404 ], [ 50.58757, 25.82364 ], [ 50.54987, 25.8322 ], [ 50.47425, 25.94558 ], [ 50.48013, 26.06729 ], [ 50.44722, 26.22537 ], [ 50.47532, 26.25231 ], [ 50.51543, 26.23554 ], [ 50.59828, 26.23917 ], [ 50.59711, 26.17148 ], [ 50.64465, 26.15914 ] ] ], [ [ [ 50.42593, 26.12085 ], [ 50.38994, 26.11884 ], [ 50.37076, 26.14813 ], [ 50.41409, 26.18004 ], [ 50.42593, 26.12085 ] ] ], [ [ [ 50.68496, 26.2697 ], [ 50.67909, 26.19215 ], [ 50.57596, 26.28337 ], [ 50.64941, 26.32528 ], [ 50.68496, 26.2697 ] ] ] ] } },
{ "type": "Feature", "properties": { "iso3": "IRQ", "name": "Iraq" }, "geometry": { "type": "Polygon", "coordinates": [ [ [ 42.7913, 37.37249 ], [ 42.95013, 37.31787 ], [ 43.04394, 37.34495 ], [ 43.12826, 37.3693 ], [ 43.14291, 37.36391 ], [ 43.28649, 37.31109 ], [ 43.30585, 37.31799 ], [ 43.33135, 37.32708 ], [ 43.50276, 37.24936 ], [ 43.50855, 37.24674 ], [ 43.59138, 37.23591 ], [ 43.64289, 37.22917 ], [ 43.8295, 37.20477 ], [ 43.90405, 37.22627 ], [ 43.91366, 37.22904 ], [ 43.91883, 37.23053 ], [ 44.01655, 37.31798 ], [ 44.01848, 37.3197 ], [ 44.02795, 37.31949 ], [ 44.06197, 37.31872 ], [ 44.13117, 37.31716 ], [ 44.16742, 37.29432 ], [ 44.25112, 37.24158 ], [ 44.26793, 37.23099 ], [ 44.26908, 37.1719 ], [ 44.24185, 37.15046 ], [ 44.18532, 37.10596 ], [ 44.24264, 37.0073 ], [ 44.29262, 36.97484 ], [ 44.32409, 37.00429 ], [ 44.36458, 37.04218 ], [ 44.45048, 37.07829 ], [ 44.51628, 37.10596 ], [ 44.57634, 37.15199 ], [ 44.62344, 37.17957 ], [ 44.78372, 37.15415 ], [ 44.7688, 37.09838 ], [ 44.894, 37.01163 ], [ 44.90097, 36.86026 ], [ 44.85725, 36.83015 ], [ 44.85094, 36.78775 ], [ 45.00575, 36.7477 ], [ 45.05906, 36.6893 ], [ 45.01203, 36.52041 ], [ 45.10024, 36.42513 ], [ 45.24993, 36.40655 ], [ 45.28283, 36.25207 ], [ 45.32186, 36.22032 ], [ 45.32765, 36.14877 ], [ 45.37277, 36.08391 ], [ 45.35472, 35.9857 ], [ 45.48654, 36.00145 ], [ 45.55797, 35.9951 ], [ 45.66199, 35.90204 ], [ 45.76477, 35.81007 ], [ 46.06821, 35.85117 ], [ 46.18974, 35.79923 ], [ 46.29231, 35.8127 ], [ 46.32899, 35.81751 ], [ 46.32735, 35.77079 ], [ 46.29231, 35.74657 ], [ 46.26431, 35.72722 ], [ 46.01847, 35.68166 ], [ 46.02055, 35.58759 ], [ 45.9914, 35.56392 ], [ 46.01125, 35.45008 ], [ 46.15868, 35.28451 ], [ 46.12808, 35.24085 ], [ 46.1939, 35.19701 ], [ 46.16146, 35.0993 ], [ 46.05204, 35.04928 ], [ 45.922, 35.09561 ], [ 45.86421, 34.91104 ], [ 45.79958, 34.90411 ], [ 45.7776, 34.84777 ], [ 45.70758, 34.82441 ], [ 45.66645, 34.73651 ], [ 45.73709, 34.54971 ], [ 45.66199, 34.56231 ], [ 45.53948, 34.58287 ], [ 45.51697, 34.49281 ], [ 45.48654, 34.4759 ], [ 45.44147, 34.46007 ], [ 45.46774, 34.38269 ], [ 45.48654, 34.3539 ], [ 45.54467, 34.34072 ], [ 45.58281, 34.27278 ], [ 45.5698, 34.14675 ], [ 45.48654, 34.07861 ], [ 45.46669, 34.01796 ], [ 45.41887, 33.97189 ], [ 45.44011, 33.94976 ], [ 45.48654, 33.94972 ], [ 45.66199, 33.72933 ], [ 45.69252, 33.69097 ], [ 45.78169, 33.61246 ], [ 45.89921, 33.62831 ], [ 45.94812, 33.56373 ], [ 45.90291, 33.49795 ], [ 46.00465, 33.48913 ], [ 46.18038, 33.24768 ], [ 46.17126, 33.1694 ], [ 46.07619, 33.10917 ], [ 46.13765, 33.06157 ], [ 46.11981, 32.98539 ], [ 46.29231, 32.96088 ], [ 46.37735, 32.9488 ], [ 46.39756, 32.94593 ], [ 46.56541, 32.86762 ], [ 46.67525, 32.79263 ], [ 47.14859, 32.46946 ], [ 47.29664, 32.48927 ], [ 47.31468, 32.48346 ], [ 47.39644, 32.45712 ], [ 47.45242, 32.39841 ], [ 47.45266, 32.33518 ], [ 47.5578, 32.21938 ], [ 47.53864, 32.14044 ], [ 47.66411, 32.04854 ], [ 47.85987, 31.78336 ], [ 47.69275, 31.408 ], [ 47.6854, 31.31356 ], [ 47.68501, 31.2449 ], [ 47.69707, 31.00852 ], [ 48.02682, 30.99211 ], [ 48.03182, 30.48499 ], [ 48.14466, 30.43165 ], [ 48.2016, 30.3349 ], [ 48.27821, 30.32628 ], [ 48.39356, 30.20587 ], [ 48.39311, 30.11924 ], [ 48.46663, 29.99347 ], [ 48.62352, 29.92931 ], [ 48.61942, 29.92675 ], [ 48.43534, 29.90674 ], [ 48.25787, 30.00631 ], [ 48.17087, 30.03098 ], [ 48.08518, 30.03384 ], [ 47.96064, 29.99721 ], [ 47.65353, 30.10287 ], [ 47.37859, 30.10101 ], [ 47.31468, 30.07471 ], [ 47.18111, 30.01975 ], [ 47.11991, 29.94882 ], [ 46.86476, 29.43996 ], [ 46.67525, 29.23622 ], [ 46.56678, 29.11961 ], [ 46.55268, 29.10027 ], [ 46.40382, 29.06092 ], [ 46.37735, 29.06306 ], [ 46.29231, 29.06993 ], [ 45.66199, 29.12089 ], [ 45.48654, 29.13507 ], [ 45.28283, 29.15073 ], [ 45.17198, 29.15925 ], [ 44.70979, 29.20316 ], [ 44.04611, 29.69857 ], [ 43.81297, 29.8726 ], [ 43.24354, 30.2843 ], [ 43.02867, 30.43965 ], [ 42.70575, 30.67312 ], [ 42.08456, 31.11016 ], [ 41.43663, 31.37624 ], [ 40.61635, 31.8357 ], [ 40.4133, 31.94804 ], [ 40.20173, 31.985 ], [ 39.97298, 32.02446 ], [ 39.81778, 32.05099 ], [ 39.79692, 32.05455 ], [ 39.45801, 32.11162 ], [ 39.41276, 32.11921 ], [ 39.20092, 32.15434 ], [ 39.29369, 32.23438 ], [ 39.2841, 32.26579 ], [ 39.26084, 32.34195 ], [ 39.05587, 32.30972 ], [ 39.0203, 32.37276 ], [ 39.00991, 32.40418 ], [ 38.99306, 32.45508 ], [ 38.98558, 32.47766 ], [ 39.06208, 32.49673 ], [ 39.08606, 32.50201 ], [ 39.04933, 32.6116 ], [ 39.0322, 32.66277 ], [ 38.89067, 33.08541 ], [ 38.79367, 33.37506 ], [ 39.13386, 33.55189 ], [ 39.72881, 33.85775 ], [ 40.16275, 34.07586 ], [ 40.63599, 34.3117 ], [ 40.98444, 34.40979 ], [ 41.22804, 34.78913 ], [ 41.21946, 35.10941 ], [ 41.26183, 35.44437 ], [ 41.32404, 35.55385 ], [ 41.37962, 35.65996 ], [ 41.36536, 35.84423 ], [ 41.25999, 36.07016 ], [ 41.29002, 36.26406 ], [ 41.30896, 36.38635 ], [ 41.41173, 36.52221 ], [ 41.82748, 36.59766 ], [ 42.13612, 36.86026 ], [ 42.36903, 37.05553 ], [ 42.35573, 37.10877 ], [ 42.35694, 37.13208 ], [ 42.35638, 37.14033 ], [ 42.3785, 37.11566 ], [ 42.44488, 37.1285 ], [ 42.57414, 37.1535 ], [ 42.7913, 37.37249 ] ] ] } },
{ "type": "Feature", "properties": { "iso3": "ISR", "name": "Israel" }, "geometry": { "type": "Polygon", "coordinates": [ [ [ 35.66877, 33.23104 ], [ 35.62129, 32.90343 ], [ 35.65664, 32.78014 ], [ 35.64345, 32.69931 ], [ 35.67206, 32.69101 ], [ 35.57553, 32.64077 ], [ 35.55492, 32.38902 ], [ 35.43334, 32.41763 ], [ 35.38199, 32.50596 ], [ 35.20919, 32.54244 ], [ 35.07564, 32.4526 ], [ 35.04172, 32.37769 ], [ 35.00401, 32.26579 ], [ 34.9745, 32.1782 ], [ 34.98163, 32.05099 ], [ 34.9863, 31.96778 ], [ 35.0133, 31.88004 ], [ 34.99433, 31.82445 ], [ 35.05287, 31.82659 ], [ 35.17979, 31.78222 ], [ 35.12318, 31.711 ], [ 35.02191, 31.66389 ], [ 34.96091, 31.60304 ], [ 34.88968, 31.4003 ], [ 34.93011, 31.34858 ], [ 35.20701, 31.3702 ], [ 35.38829, 31.48321 ], [ 35.47598, 31.49312 ], [ 35.43282, 31.32376 ], [ 35.40393, 31.24691 ], [ 35.4182, 31.21755 ], [ 35.44223, 31.16811 ], [ 35.41613, 30.96744 ], [ 35.38403, 30.92956 ], [ 35.36371, 30.90558 ], [ 35.34352, 30.88174 ], [ 35.34037, 30.81256 ], [ 35.30821, 30.76227 ], [ 35.2124, 30.58854 ], [ 35.16771, 30.43965 ], [ 35.18422, 30.34858 ], [ 35.14917, 30.27199 ], [ 35.15554, 30.10333 ], [ 35.08251, 29.96077 ], [ 34.97736, 29.54292 ], [ 34.95251, 29.54406 ], [ 34.90258, 29.49063 ], [ 34.87598, 29.55889 ], [ 34.83391, 29.79136 ], [ 34.62692, 30.32761 ], [ 34.55562, 30.42019 ], [ 34.55036, 30.43965 ], [ 34.51963, 30.55344 ], [ 34.47699, 30.71133 ], [ 34.39701, 30.90558 ], [ 34.38714, 30.92956 ], [ 34.2675, 31.22013 ], [ 34.29475, 31.24245 ], [ 34.32581, 31.25797 ], [ 34.36702, 31.30744 ], [ 34.37299, 31.37375 ], [ 34.38215, 31.39116 ], [ 34.42677, 31.42717 ], [ 34.51814, 31.50172 ], [ 34.55999, 31.5417 ], [ 34.49125, 31.59499 ], [ 34.6478, 31.8357 ], [ 34.6648, 31.86184 ], [ 34.73292, 32.00366 ], [ 34.75113, 32.05099 ], [ 34.80927, 32.20211 ], [ 34.83089, 32.26579 ], [ 34.86944, 32.41116 ], [ 34.95706, 32.81074 ], [ 35.04248, 32.83222 ], [ 35.07694, 32.88772 ], [ 35.10356, 33.09422 ], [ 35.29689, 33.10673 ], [ 35.36767, 33.06256 ], [ 35.48922, 33.09284 ], [ 35.52827, 33.13697 ], [ 35.55942, 33.27068 ], [ 35.62384, 33.24295 ], [ 35.66877, 33.23104 ] ] ] } },
{ "type": "Feature", "properties": { "iso3": "JOR", "name": "Jordan" }, "geometry": { "type": "Polygon", "coordinates": [ [ [ 39.0203, 32.37276 ], [ 39.05587, 32.30972 ], [ 39.26084, 32.34195 ], [ 39.2841, 32.26579 ], [ 39.29369, 32.23438 ], [ 39.20092, 32.15434 ], [ 39.06208, 32.05099 ], [ 38.99064, 31.99781 ], [ 38.34627, 31.8357 ], [ 37.98459, 31.74472 ], [ 37.95904, 31.74335 ], [ 37.79751, 31.70309 ], [ 37.37968, 31.59417 ], [ 37.09976, 31.52407 ], [ 37.00617, 31.50064 ], [ 37.18994, 31.31932 ], [ 37.239, 31.27907 ], [ 37.25391, 31.26113 ], [ 37.29484, 31.21755 ], [ 37.34127, 31.16811 ], [ 37.57369, 30.92956 ], [ 37.59705, 30.90558 ], [ 37.94013, 30.55344 ], [ 37.98524, 30.50715 ], [ 37.86432, 30.43965 ], [ 37.67289, 30.33279 ], [ 37.50584, 30.01199 ], [ 37.36603, 29.97559 ], [ 36.79318, 29.86628 ], [ 36.44927, 29.43677 ], [ 36.08893, 29.19586 ], [ 35.77821, 29.22922 ], [ 34.96057, 29.3573 ], [ 34.99288, 29.50848 ], [ 34.97736, 29.54292 ], [ 35.08251, 29.96077 ], [ 35.15554, 30.10333 ], [ 35.14917, 30.27199 ], [ 35.18422, 30.34858 ], [ 35.16771, 30.43965 ], [ 35.2124, 30.58854 ], [ 35.30821, 30.76227 ], [ 35.34037, 30.81256 ], [ 35.34352, 30.88174 ], [ 35.36371, 30.90558 ], [ 35.38403, 30.92956 ], [ 35.41613, 30.96744 ], [ 35.44223, 31.16811 ], [ 35.4182, 31.21755 ], [ 35.40393, 31.24691 ], [ 35.43282, 31.32376 ], [ 35.47598, 31.49312 ], [ 35.48127, 31.52407 ], [ 35.48832, 31.60247 ], [ 35.50151, 31.65835 ], [ 35.52756, 31.72076 ], [ 35.55863, 31.75826 ], [ 35.54871, 31.8357 ], [ 35.5235, 32.03254 ], [ 35.52742, 32.05099 ], [ 35.56888, 32.24578 ], [ 35.56693, 32.26579 ], [ 35.55492, 32.38902 ], [ 35.57553, 32.64077 ], [ 35.67206, 32.69101 ], [ 35.79879, 32.75376 ], [ 35.92882, 32.71326 ], [ 36.01481, 32.6521 ], [ 36.08908, 32.51567 ], [ 36.19414, 32.52096 ], [ 36.40363, 32.38319 ], [ 36.44791, 32.37276 ], [ 36.51336, 32.35735 ], [ 36.84993, 32.31927 ], [ 36.90338, 32.37276 ], [ 36.96015, 32.42956 ], [ 37.07178, 32.4356 ], [ 37.2269, 32.56228 ], [ 37.35321, 32.56503 ], [ 37.49408, 32.69255 ], [ 37.73489, 32.76397 ], [ 37.79317, 32.89025 ], [ 37.92295, 32.91067 ], [ 38.79367, 33.37506 ], [ 38.89067, 33.08541 ], [ 39.0322, 32.66277 ], [ 39.04933, 32.6116 ], [ 39.08606, 32.50201 ], [ 39.06208, 32.49673 ], [ 38.98558, 32.47766 ], [ 38.99306, 32.45508 ], [ 39.00991, 32.40418 ], [ 39.0203, 32.37276 ] ] ] } },
{ "type": "Feature", "properties": { "iso3": "KWT", "name": "Kuwait" }, "geometry": { "type": "MultiPolygon", "coordinates": [ [ [ [ 48.09813, 30.00861 ], [ 48.11249, 29.97065 ], [ 48.23194, 29.94008 ], [ 48.33374, 29.83992 ], [ 48.36208, 29.78639 ], [ 48.36175, 29.73395 ], [ 48.23495, 29.59995 ], [ 48.1574, 29.61401 ], [ 48.161, 29.5419 ], [ 48.04833, 29.56915 ], [ 47.96066, 29.55589 ], [ 47.74676, 29.39994 ], [ 47.76996, 29.37043 ], [ 47.85071, 29.32842 ], [ 47.99083, 29.38193 ], [ 48.02644, 29.36034 ], [ 48.09448, 29.34105 ], [ 48.09051, 29.2707 ], [ 48.11925, 29.18488 ], [ 48.19647, 28.94758 ], [ 48.27815, 28.87773 ], [ 48.3035, 28.77689 ], [ 48.38475, 28.73518 ], [ 48.38962, 28.60683 ], [ 48.40526, 28.56931 ], [ 48.43036, 28.5343 ], [ 48.22586, 28.53182 ], [ 47.72678, 28.52647 ], [ 47.64828, 28.60683 ], [ 47.60295, 28.66861 ], [ 47.58624, 28.82049 ], [ 47.53925, 28.89999 ], [ 47.46142, 28.99563 ], [ 47.31468, 29.0163 ], [ 46.7917, 29.07393 ], [ 46.67525, 29.08677 ], [ 46.55268, 29.10027 ], [ 46.56678, 29.11961 ], [ 46.67525, 29.23622 ], [ 46.86476, 29.43996 ], [ 47.11991, 29.94882 ], [ 47.18111, 30.01975 ], [ 47.31468, 30.07471 ], [ 47.37859, 30.10101 ], [ 47.65353, 30.10287 ], [ 47.96064, 29.99721 ], [ 48.01657, 29.99022 ], [ 48.09813, 30.00861 ] ] ], [ [ [ 48.26521, 29.43105 ], [ 48.28333, 29.4625 ], [ 48.30781, 29.47087 ], [ 48.39798, 29.40563 ], [ 48.38015, 29.39638 ], [ 48.26521, 29.43105 ] ] ] ] } },
{ "type": "Feature", "properties": { "iso3": "LBN", "name": "Lebanon" }, "geometry": { "type": "Polygon", "coordinates": [ [ [ 36.3327, 34.68034 ], [ 36.45116, 34.62582 ], [ 36.34604, 34.50534 ], [ 36.43374, 34.50079 ], [ 36.55565, 34.41088 ], [ 36.54008, 34.35967 ], [ 36.625, 34.20389 ], [ 36.49371, 34.06508 ], [ 36.41573, 34.04165 ], [ 36.30085, 33.93981 ], [ 36.3007, 33.90404 ], [ 36.37329, 33.86616 ], [ 36.379, 33.83561 ], [ 36.13056, 33.83861 ], [ 36.07175, 33.82099 ], [ 35.97745, 33.72145 ], [ 35.94787, 33.65078 ], [ 36.04075, 33.5702 ], [ 35.95597, 33.52798 ], [ 35.90065, 33.44287 ], [ 35.88442, 33.42985 ], [ 35.83806, 33.41111 ], [ 35.79561, 33.35227 ], [ 35.62384, 33.24295 ], [ 35.55942, 33.27068 ], [ 35.52827, 33.13697 ], [ 35.48922, 33.09284 ], [ 35.36767, 33.06256 ], [ 35.29689, 33.10673 ], [ 35.10356, 33.09422 ], [ 35.19591, 33.19456 ], [ 35.27052, 33.42457 ], [ 35.38586, 33.58889 ], [ 35.48086, 33.86784 ], [ 35.47888, 33.89988 ], [ 35.54199, 33.90511 ], [ 35.63212, 34.00388 ], [ 35.64935, 34.21374 ], [ 35.66355, 34.28806 ], [ 35.74217, 34.37002 ], [ 35.83634, 34.45558 ], [ 35.9544, 34.51227 ], [ 35.98538, 34.54855 ], [ 35.97547, 34.63389 ], [ 36.11429, 34.63357 ], [ 36.27063, 34.63292 ], [ 36.3327, 34.68034 ] ] ] } },
{ "type": "Feature", "properties": { "iso3": "PSE", "name": "Palestine" }, "geometry": { "type": "MultiPolygon", "coordinates": [ [ [ [ 34.21889, 31.32347 ], [ 34.23252, 31.33474 ], [ 34.24254, 31.34328 ], [ 34.31071, 31.40221 ], [ 34.33878, 31.42651 ], [ 34.37529, 31.46388 ], [ 34.4322, 31.52407 ], [ 34.45373, 31.54684 ], [ 34.49125, 31.59499 ], [ 34.55999, 31.5417 ], [ 34.51814, 31.50172 ], [ 34.42677, 31.42717 ], [ 34.38215, 31.39116 ], [ 34.37299, 31.37375 ], [ 34.36702, 31.30744 ], [ 34.32581, 31.25797 ], [ 34.29475, 31.24245 ], [ 34.2675, 31.22013 ], [ 34.21889, 31.32347 ] ] ], [ [ [ 35.55863, 31.75826 ], [ 35.52756, 31.72076 ], [ 35.50151, 31.65835 ], [ 35.48832, 31.60247 ], [ 35.48127, 31.52407 ], [ 35.47598, 31.49312 ], [ 35.38829, 31.48321 ], [ 35.20701, 31.3702 ], [ 34.93011, 31.34858 ], [ 34.88968, 31.4003 ], [ 34.96091, 31.60304 ], [ 35.02191, 31.66389 ], [ 35.12318, 31.711 ], [ 35.23393, 31.76251 ], [ 35.21511, 31.80226 ], [ 35.11178, 31.8357 ], [ 35.07598, 31.84729 ], [ 35.02005, 31.8357 ], [ 35.00392, 31.8357 ], [ 35.03791, 31.90197 ], [ 34.9863, 31.96778 ], [ 34.98163, 32.05099 ], [ 34.9745, 32.1782 ], [ 35.00401, 32.26579 ], [ 35.04172, 32.37769 ], [ 35.07564, 32.4526 ], [ 35.20919, 32.54244 ], [ 35.38199, 32.50596 ], [ 35.43334, 32.41763 ], [ 35.55492, 32.38902 ], [ 35.56693, 32.26579 ], [ 35.56888, 32.24578 ], [ 35.52742, 32.05099 ], [ 35.5235, 32.03254 ], [ 35.54871, 31.8357 ], [ 35.55863, 31.75826 ] ] ] ] } },
{ "type": "Feature", "properties": { "iso3": "QAT", "name": "Qatar" }, "geometry": { "type": "Polygon", "coordinates": [ [ [ 51.55182, 25.63964 ], [ 51.48395, 25.51726 ], [ 51.52308, 25.37918 ], [ 51.53932, 25.30217 ], [ 51.61582, 25.28038 ], [ 51.61939, 25.19369 ], [ 51.62108, 25.0195 ], [ 51.42961, 24.66527 ], [ 51.36108, 24.60168 ], [ 51.31096, 24.65532 ], [ 51.23789, 24.63228 ], [ 51.29848, 24.58754 ], [ 51.30218, 24.50456 ], [ 51.26512, 24.50528 ], [ 51.2253, 24.49434 ], [ 51.17098, 24.48545 ], [ 51.15382, 24.47859 ], [ 51.1235, 24.47482 ], [ 51.09581, 24.47155 ], [ 51.02399, 24.49264 ], [ 50.98394, 24.51057 ], [ 50.92251, 24.55993 ], [ 50.81173, 24.74454 ], [ 50.86515, 24.79871 ], [ 50.79956, 25.08212 ], [ 50.771, 25.17821 ], [ 50.77094, 25.47028 ], [ 50.82001, 25.51699 ], [ 50.84135, 25.59293 ], [ 50.89114, 25.55891 ], [ 50.95982, 25.60529 ], [ 50.91581, 25.71749 ], [ 50.9285, 25.7635 ], [ 50.97667, 25.77294 ], [ 50.95883, 25.84524 ], [ 51.05618, 26.04856 ], [ 51.23979, 26.14388 ], [ 51.34469, 26.10179 ], [ 51.42003, 25.97008 ], [ 51.49631, 25.95398 ], [ 51.58315, 25.91398 ], [ 51.59074, 25.81819 ], [ 51.58335, 25.70068 ], [ 51.53508, 25.68739 ], [ 51.55182, 25.63964 ] ] ] } },
{ "type": "Feature", "properties": { "iso3": "SAU", "name": "Saudi Arabia" }, "geometry": { "type": "MultiPolygon", "coordinates": [ [ [ [ 41.6128, 16.86096 ], [ 41.62734, 16.81413 ], [ 41.58627, 16.82132 ], [ 41.5597, 16.86517 ], [ 41.6128, 16.86096 ] ] ], [ [ [ 41.72548, 16.93617 ], [ 41.68964, 16.89209 ], [ 41.63748, 16.92083 ], [ 41.68388, 16.96103 ], [ 41.72548, 16.93617 ] ] ], [ [ [ 41.07394, 18.61547 ], [ 41.08262, 18.55351 ], [ 41.05129, 18.55806 ], [ 41.028, 18.5932 ], [ 41.07394, 18.61547 ] ] ], [ [ [ 37.12345, 24.95893 ], [ 37.09432, 24.94435 ], [ 37.04442, 24.96195 ], [ 37.07043, 24.99631 ], [ 37.12345, 24.95893 ] ] ], [ [ [ 36.91472, 25.38981 ], [ 36.88034, 25.37316 ], [ 36.84248, 25.40301 ], [ 36.88476, 25.42821 ], [ 36.91472, 25.38981 ] ] ], [ [ [ 37.0314, 25.43151 ], [ 36.99702, 25.41963 ], [ 36.95728, 25.4595 ], [ 37.01088, 25.46883 ], [ 37.0314, 25.43151 ] ] ], [ [ [ 36.87865, 25.55894 ], [ 36.85201, 25.52563 ], [ 36.80802, 25.53777 ], [ 36.84233, 25.57986 ], [ 36.87865, 25.55894 ] ] ], [ [ [ 36.46852, 25.64905 ], [ 36.50199, 25.67099 ], [ 36.53642, 25.61211 ], [ 36.50563, 25.60958 ], [ 36.46852, 25.64905 ] ] ], [ [ [ 34.67103, 27.95647 ], [ 34.72081, 27.95441 ], [ 34.73886, 27.91425 ], [ 34.70368, 27.90559 ], [ 34.67103, 27.95647 ] ] ], [ [ [ 34.46956, 28.00769 ], [ 34.54162, 28.01864 ], [ 34.52803, 27.97633 ], [ 34.5937, 27.96183 ], [ 34.62407, 27.92285 ], [ 34.54094, 27.91495 ], [ 34.46956, 28.00769 ] ] ], [ [ [ 42.0785, 16.52838 ], [ 42.04054, 16.51702 ], [ 42.01489, 16.55608 ], [ 42.05303, 16.57502 ], [ 42.0785, 16.52838 ] ] ], [ [ [ 41.8217, 16.71579 ], [ 41.77959, 16.69154 ], [ 41.73235, 16.71383 ], [ 41.78704, 16.73686 ], [ 41.8217, 16.71579 ] ] ], [ [ [ 41.99206, 16.6375 ], [ 41.84883, 16.76997 ], [ 41.89947, 16.7931 ], [ 41.82011, 16.90879 ], [ 41.93133, 16.96553 ], [ 41.97544, 16.78764 ], [ 42.13683, 16.74947 ], [ 42.18654, 16.6975 ], [ 42.19144, 16.64923 ], [ 41.99206, 16.6375 ] ] ], [ [ [ 41.78709, 16.94777 ], [ 41.76825, 16.99546 ], [ 41.82637, 16.98271 ], [ 41.82285, 16.94132 ], [ 41.78709, 16.94777 ] ] ], [ [ [ 46.55268, 29.10027 ], [ 46.67525, 29.08677 ], [ 46.7917, 29.07393 ], [ 47.31468, 29.0163 ], [ 47.46142, 28.99563 ], [ 47.53925, 28.89999 ], [ 47.58624, 28.82049 ], [ 47.60295, 28.66861 ], [ 47.64828, 28.60683 ], [ 47.72678, 28.52647 ], [ 48.22586, 28.53182 ], [ 48.43036, 28.5343 ], [ 48.51967, 28.43137 ], [ 48.52921, 28.32247 ], [ 48.61317, 28.20891 ], [ 48.63659, 28.07716 ], [ 48.75822, 27.99384 ], [ 48.76924, 27.93871 ], [ 48.87027, 27.82438 ], [ 48.8163, 27.73996 ], [ 48.85707, 27.62678 ], [ 49.10455, 27.54826 ], [ 49.23077, 27.53667 ], [ 49.27927, 27.45869 ], [ 49.19139, 27.41414 ], [ 49.23797, 27.39207 ], [ 49.24731, 27.33022 ], [ 49.30427, 27.31203 ], [ 49.3371, 27.18368 ], [ 49.38917, 27.12603 ], [ 49.45288, 27.1167 ], [ 49.50772, 27.16605 ], [ 49.47327, 27.28935 ], [ 49.49337, 27.30636 ], [ 49.58974, 27.102 ], [ 49.69298, 26.97052 ], [ 49.8002, 26.89525 ], [ 49.97296, 26.83029 ], [ 50.08009, 26.72053 ], [ 50.06064, 26.69136 ], [ 50.00213, 26.71011 ], [ 50.01136, 26.64055 ], [ 50.06666, 26.57216 ], [ 50.06594, 26.49706 ], [ 50.20812, 26.47331 ], [ 50.2163, 26.22686 ], [ 50.14712, 26.07557 ], [ 50.03333, 26.16454 ], [ 50.00147, 26.11168 ], [ 50.00552, 26.02427 ], [ 50.11075, 25.95486 ], [ 50.14674, 25.82389 ], [ 50.2175, 25.72289 ], [ 50.19079, 25.67467 ], [ 50.22876, 25.61426 ], [ 50.31091, 25.56508 ], [ 50.34631, 25.48431 ], [ 50.48594, 25.39505 ], [ 50.56672, 25.08442 ], [ 50.71885, 24.86988 ], [ 50.76725, 24.75063 ], [ 50.81173, 24.74454 ], [ 50.92251, 24.55993 ], [ 50.98394, 24.51057 ], [ 51.02399, 24.49264 ], [ 51.09581, 24.47155 ], [ 51.1235, 24.47482 ], [ 51.15382, 24.47859 ], [ 51.17098, 24.48545 ], [ 51.2253, 24.49434 ], [ 51.26512, 24.50528 ], [ 51.30218, 24.50456 ], [ 51.40582, 24.60773 ], [ 51.47577, 24.58429 ], [ 51.3342, 24.44135 ], [ 51.29227, 24.29279 ], [ 51.43232, 24.32293 ], [ 51.58994, 24.25357 ], [ 51.60706, 24.10829 ], [ 52.48131, 23.05971 ], [ 52.61609, 22.93531 ], [ 55.10727, 22.63607 ], [ 55.21137, 22.70542 ], [ 55.65972, 22.0001 ], [ 55.55685, 21.68497 ], [ 55.53381, 21.61438 ], [ 55.43174, 21.30172 ], [ 55.39664, 21.19604 ], [ 55.38671, 21.16615 ], [ 55.10171, 20.30813 ], [ 55.04062, 20.12305 ], [ 55.0, 20.0 ], [ 53.51958, 19.50653 ], [ 53.47515, 19.49172 ], [ 52.00151, 19.0005 ], [ 52.0, 19.0 ], [ 50.78013, 18.789 ], [ 49.1021, 18.60856 ], [ 48.18643, 18.16512 ], [ 47.60677, 17.45667 ], [ 47.46123, 17.11759 ], [ 47.31468, 17.03036 ], [ 47.18997, 16.95613 ], [ 47.0, 16.95 ], [ 46.74061, 17.27868 ], [ 46.67525, 17.27132 ], [ 46.37735, 17.23777 ], [ 46.35008, 17.2347 ], [ 46.29231, 17.24061 ], [ 45.66199, 17.30509 ], [ 45.48654, 17.32303 ], [ 45.39281, 17.33881 ], [ 45.28283, 17.39484 ], [ 45.21253, 17.43065 ], [ 44.88859, 17.43333 ], [ 44.5635, 17.41009 ], [ 44.35754, 17.43192 ], [ 44.16172, 17.41022 ], [ 44.10368, 17.37705 ], [ 44.04611, 17.39753 ], [ 43.94242, 17.34032 ], [ 43.72044, 17.37 ], [ 43.67167, 17.38008 ], [ 43.4667, 17.54969 ], [ 43.39185, 17.56087 ], [ 43.30313, 17.52843 ], [ 43.23782, 17.4173 ], [ 43.31232, 17.3136 ], [ 43.20463, 17.23015 ], [ 43.17337, 17.11699 ], [ 43.22556, 17.03674 ], [ 43.1571, 16.91861 ], [ 43.24922, 16.79043 ], [ 43.23472, 16.64283 ], [ 43.13997, 16.66316 ], [ 43.11781, 16.53893 ], [ 42.96446, 16.50172 ], [ 42.93984, 16.40252 ], [ 42.83806, 16.38323 ], [ 42.772, 16.40414 ], [ 42.68459, 16.74997 ], [ 42.55479, 16.87939 ], [ 42.53029, 17.00801 ], [ 42.51717, 17.02806 ], [ 42.4087, 17.14099 ], [ 42.38023, 17.101 ], [ 42.35397, 17.12256 ], [ 42.37037, 17.17202 ], [ 42.30783, 17.42408 ], [ 41.92812, 17.76031 ], [ 41.79935, 17.84412 ], [ 41.65316, 17.99097 ], [ 41.48363, 18.28422 ], [ 41.4412, 18.44049 ], [ 41.36572, 18.56467 ], [ 41.24042, 18.67273 ], [ 41.22586, 18.82539 ], [ 41.14873, 18.9498 ], [ 41.14595, 19.06609 ], [ 41.07049, 19.15582 ], [ 40.97017, 19.36312 ], [ 40.93911, 19.49172 ], [ 40.81802, 19.5951 ], [ 40.75226, 19.75325 ], [ 40.62568, 19.80903 ], [ 40.50157, 19.98211 ], [ 40.09008, 20.26837 ], [ 39.89017, 20.30183 ], [ 39.68262, 20.45282 ], [ 39.4839, 20.75808 ], [ 39.28047, 20.97656 ], [ 39.17092, 21.19604 ], [ 39.12311, 21.29183 ], [ 39.16666, 21.41071 ], [ 39.15356, 21.50983 ], [ 38.95216, 21.95214 ], [ 39.01231, 22.04156 ], [ 39.07825, 22.25896 ], [ 39.07374, 22.55102 ], [ 38.93143, 22.81244 ], [ 38.9525, 22.86855 ], [ 38.90648, 22.88981 ], [ 38.90006, 22.94206 ], [ 38.81945, 23.01543 ], [ 38.66585, 23.41225 ], [ 38.599, 23.55702 ], [ 38.55185, 23.57567 ], [ 38.49465, 23.66327 ], [ 38.44242, 23.79801 ], [ 38.1108, 24.04557 ], [ 37.93638, 24.14429 ], [ 37.83981, 24.16696 ], [ 37.6906, 24.29091 ], [ 37.63757, 24.29205 ], [ 37.59462, 24.2522 ], [ 37.52376, 24.27496 ], [ 37.43736, 24.36934 ], [ 37.44854, 24.44941 ], [ 37.36689, 24.56184 ], [ 37.16898, 24.81516 ], [ 37.24877, 24.85541 ], [ 37.27967, 24.96576 ], [ 37.2442, 25.17526 ], [ 37.11809, 25.30823 ], [ 37.0668, 25.44521 ], [ 36.92526, 25.64783 ], [ 36.82546, 25.73122 ], [ 36.73124, 25.75387 ], [ 36.69007, 25.80967 ], [ 36.65747, 25.85709 ], [ 36.70431, 25.96206 ], [ 36.69784, 26.02879 ], [ 36.49744, 26.1258 ], [ 36.22862, 26.62732 ], [ 36.09819, 26.75139 ], [ 36.0167, 26.91559 ], [ 35.80952, 27.11121 ], [ 35.7873, 27.2506 ], [ 35.60152, 27.42996 ], [ 35.43914, 27.75285 ], [ 35.18159, 28.00009 ], [ 35.20259, 28.04552 ], [ 35.05356, 28.10151 ], [ 34.87944, 28.07619 ], [ 34.82158, 28.10312 ], [ 34.7441, 28.06489 ], [ 34.69638, 28.12626 ], [ 34.63007, 28.04052 ], [ 34.58866, 28.10488 ], [ 34.65758, 28.18781 ], [ 34.79803, 28.52137 ], [ 34.78483, 28.67771 ], [ 34.85808, 29.04036 ], [ 34.96057, 29.3573 ], [ 35.77821, 29.22922 ], [ 36.08893, 29.19586 ], [ 36.44927, 29.43677 ], [ 36.79318, 29.86628 ], [ 37.36603, 29.97559 ], [ 37.50584, 30.01199 ], [ 37.67289, 30.33279 ], [ 37.86432, 30.43965 ], [ 37.98524, 30.50715 ], [ 37.94013, 30.55344 ], [ 37.59705, 30.90558 ], [ 37.57369, 30.92956 ], [ 37.34127, 31.16811 ], [ 37.29484, 31.21755 ], [ 37.25391, 31.26113 ], [ 37.239, 31.27907 ], [ 37.18994, 31.31932 ], [ 37.00617, 31.50064 ], [ 37.09976, 31.52407 ], [ 37.37968, 31.59417 ], [ 37.79751, 31.70309 ], [ 37.95904, 31.74335 ], [ 37.98459, 31.74472 ], [ 38.34627, 31.8357 ], [ 38.99064, 31.99781 ], [ 39.06208, 32.05099 ], [ 39.20092, 32.15434 ], [ 39.41276, 32.11921 ], [ 39.45801, 32.11162 ], [ 39.79692, 32.05455 ], [ 39.81778, 32.05099 ], [ 39.97298, 32.02446 ], [ 40.20173, 31.985 ], [ 40.4133, 31.94804 ], [ 40.61635, 31.8357 ], [ 41.43663, 31.37624 ], [ 42.08456, 31.11016 ], [ 42.70575, 30.67312 ], [ 43.02867, 30.43965 ], [ 43.24354, 30.2843 ], [ 43.81297, 29.8726 ], [ 44.04611, 29.69857 ], [ 44.70979, 29.20316 ], [ 45.17198, 29.15925 ], [ 45.28283, 29.15073 ], [ 45.48654, 29.13507 ], [ 45.66199, 29.12089 ], [ 46.29231, 29.06993 ], [ 46.37735, 29.06306 ], [ 46.40382, 29.06092 ], [ 46.55268, 29.10027 ] ] ], [ [ [ 49.59129, 27.32424 ], [ 49.55609, 27.3041 ], [ 49.50231, 27.32897 ], [ 49.54997, 27.34977 ], [ 49.59129, 27.32424 ] ] ], [ [ [ 49.02138, 27.66926 ], [ 48.989, 27.64496 ], [ 48.95889, 27.67406 ], [ 48.99523, 27.70905 ], [ 49.02138, 27.66926 ] ] ], [ [ [ 49.78187, 27.70084 ], [ 49.81368, 27.73674 ], [ 49.85611, 27.74893 ], [ 49.8338, 27.69542 ], [ 49.78187, 27.70084 ] ] ], [ [ [ 48.94856, 27.75315 ], [ 48.98918, 27.74921 ], [ 48.97742, 27.71052 ], [ 48.92306, 27.70706 ], [ 48.94856, 27.75315 ] ] ] ] } },
{ "type": "Feature", "properties": { "iso3": "YEM", "name": "Yemen" }, "geometry": { "type": "MultiPolygon", "coordinates": [ [ [ [ 42.14952, 15.06249 ], [ 42.17028, 15.08683 ], [ 42.19398, 15.08307 ], [ 42.19106, 15.02245 ], [ 42.1676, 15.02714 ], [ 42.14952, 15.06249 ] ] ], [ [ [ 42.57403, 15.40984 ], [ 42.63063, 15.39746 ], [ 42.60238, 15.27942 ], [ 42.56823, 15.26889 ], [ 42.53011, 15.30144 ], [ 42.57403, 15.40984 ] ] ], [ [ [ 41.86708, 15.55 ], [ 41.83778, 15.51446 ], [ 41.79279, 15.535 ], [ 41.83864, 15.56895 ], [ 41.86708, 15.55 ] ] ], [ [ [ 42.63717, 15.62716 ], [ 42.59743, 15.60419 ], [ 42.56861, 15.64442 ], [ 42.60471, 15.66121 ], [ 42.63717, 15.62716 ] ] ], [ [ [ 42.44207, 15.70838 ], [ 42.38889, 15.70128 ], [ 42.36242, 15.74277 ], [ 42.40953, 15.74303 ], [ 42.44207, 15.70838 ] ] ], [ [ [ 42.40025, 16.19469 ], [ 42.37809, 16.16529 ], [ 42.34251, 16.19344 ], [ 42.373, 16.23506 ], [ 42.40025, 16.19469 ] ] ], [ [ [ 42.52159, 16.2525 ], [ 42.47137, 16.25162 ], [ 42.43959, 16.28003 ], [ 42.49634, 16.29245 ], [ 42.52159, 16.2525 ] ] ], [ [ [ 42.35461, 16.3172 ], [ 42.33371, 16.27202 ], [ 42.27915, 16.28778 ], [ 42.32636, 16.32262 ], [ 42.35461, 16.3172 ] ] ], [ [ [ 53.10176, 12.14215 ], [ 53.05626, 12.12599 ], [ 53.00871, 12.15102 ], [ 53.06693, 12.17228 ], [ 53.10176, 12.14215 ] ] ], [ [ [ 52.33376, 12.13072 ], [ 52.27567, 12.11768 ], [ 52.1666, 12.18008 ], [ 52.2644, 12.19218 ], [ 52.33376, 12.13072 ] ] ], [ [ [ 53.55427, 12.34221 ], [ 53.31105, 12.53286 ], [ 53.37683, 12.56743 ], [ 53.41354, 12.65623 ], [ 53.53715, 12.71031 ], [ 53.64957, 12.6945 ], [ 53.82648, 12.60957 ], [ 54.1129, 12.68803 ], [ 54.4654, 12.53371 ], [ 54.41826, 12.47499 ], [ 54.26898, 12.4319 ], [ 54.14023, 12.35595 ], [ 53.72862, 12.30275 ], [ 53.55427, 12.34221 ] ] ], [ [ [ 42.78052, 13.74204 ], [ 42.74258, 13.68848 ], [ 42.65641, 13.69734 ], [ 42.71774, 13.74747 ], [ 42.78052, 13.74204 ] ] ], [ [ [ 42.76831, 13.82809 ], [ 42.76071, 13.84635 ], [ 42.77153, 13.86516 ], [ 42.79512, 13.88757 ], [ 42.82313, 13.8896 ], [ 42.81303, 13.86427 ], [ 42.79524, 13.83838 ], [ 42.76831, 13.82809 ] ] ], [ [ [ 42.77235, 14.07172 ], [ 42.78943, 13.94012 ], [ 42.71925, 13.95007 ], [ 42.66222, 14.00538 ], [ 42.77235, 14.07172 ] ] ], [ [ [ 42.66475, 15.45353 ], [ 42.63466, 15.42113 ], [ 42.58737, 15.43885 ], [ 42.63021, 15.47243 ], [ 42.66475, 15.45353 ] ] ], [ [ [ 52.20311, 15.62288 ], [ 51.69334, 15.41685 ], [ 51.63106, 15.33994 ], [ 51.37355, 15.24002 ], [ 50.77373, 15.08313 ], [ 50.4756, 15.02067 ], [ 50.16634, 14.84864 ], [ 50.03602, 14.82739 ], [ 49.92938, 14.84611 ], [ 49.60871, 14.75208 ], [ 49.32379, 14.62826 ], [ 49.06967, 14.49803 ], [ 48.98295, 14.32453 ], [ 48.70129, 14.05949 ], [ 48.57799, 14.04781 ], [ 48.47253, 14.00281 ], [ 48.34612, 14.01858 ], [ 48.1926, 13.97996 ], [ 48.06408, 14.0465 ], [ 47.95859, 14.04205 ], [ 47.81197, 13.94104 ], [ 47.65845, 13.8807 ], [ 47.40462, 13.6643 ], [ 47.31468, 13.63803 ], [ 47.18201, 13.59928 ], [ 46.9259, 13.538 ], [ 46.69381, 13.43153 ], [ 46.67525, 13.42992 ], [ 46.44621, 13.41016 ], [ 46.37735, 13.41709 ], [ 46.29231, 13.42563 ], [ 46.23396, 13.4315 ], [ 45.83747, 13.39038 ], [ 45.66199, 13.34321 ], [ 45.38724, 13.07152 ], [ 45.18958, 13.00646 ], [ 45.09813, 12.94068 ], [ 45.03225, 12.76805 ], [ 44.98822, 12.77481 ], [ 45.00211, 12.8348 ], [ 44.91571, 12.80906 ], [ 44.90149, 12.74868 ], [ 44.86445, 12.73056 ], [ 44.58751, 12.81088 ], [ 44.40983, 12.68092 ], [ 44.28271, 12.63261 ], [ 44.14797, 12.65028 ], [ 44.04611, 12.62089 ], [ 43.96258, 12.59679 ], [ 43.62838, 12.74012 ], [ 43.5383, 12.69859 ], [ 43.46789, 12.68871 ], [ 43.48387, 12.83312 ], [ 43.25301, 13.22695 ], [ 43.28746, 13.67888 ], [ 43.24354, 13.82456 ], [ 43.22754, 13.87763 ], [ 43.10858, 14.05637 ], [ 42.99375, 14.41902 ], [ 43.01313, 14.53402 ], [ 42.93492, 14.80637 ], [ 42.948, 14.89986 ], [ 42.84471, 15.14625 ], [ 42.72287, 15.20514 ], [ 42.63805, 15.19172 ], [ 42.6082, 15.22638 ], [ 42.6702, 15.24887 ], [ 42.68698, 15.30566 ], [ 42.78072, 15.25111 ], [ 42.80125, 15.27309 ], [ 42.76692, 15.47975 ], [ 42.71169, 15.56269 ], [ 42.69802, 15.71596 ], [ 42.81206, 15.86689 ], [ 42.83758, 16.05008 ], [ 42.772, 16.40414 ], [ 42.83806, 16.38323 ], [ 42.93984, 16.40252 ], [ 42.96446, 16.50172 ], [ 43.11781, 16.53893 ], [ 43.13997, 16.66316 ], [ 43.23472, 16.64283 ], [ 43.24922, 16.79043 ], [ 43.1571, 16.91861 ], [ 43.22556, 17.03674 ], [ 43.17337, 17.11699 ], [ 43.20463, 17.23015 ], [ 43.31232, 17.3136 ], [ 43.23782, 17.4173 ], [ 43.30313, 17.52843 ], [ 43.39185, 17.56087 ], [ 43.4667, 17.54969 ], [ 43.67167, 17.38008 ], [ 43.72044, 17.37 ], [ 43.94242, 17.34032 ], [ 44.04611, 17.39753 ], [ 44.10368, 17.37705 ], [ 44.16172, 17.41022 ], [ 44.35754, 17.43192 ], [ 44.5635, 17.41009 ], [ 44.88859, 17.43333 ], [ 45.21253, 17.43065 ], [ 45.28283, 17.39484 ], [ 45.39281, 17.33881 ], [ 45.48654, 17.32303 ], [ 45.66199, 17.30509 ], [ 46.29231, 17.24061 ], [ 46.35008, 17.2347 ], [ 46.37735, 17.23777 ], [ 46.67525, 17.27132 ], [ 46.74061, 17.27868 ], [ 47.0, 16.95 ], [ 47.18997, 16.95613 ], [ 47.31468, 17.03036 ], [ 47.46123, 17.11759 ], [ 47.60677, 17.45667 ], [ 48.18643, 18.16512 ], [ 49.1021, 18.60856 ], [ 50.78013, 18.789 ], [ 52.0, 19.0 ], [ 52.7646, 17.38656 ], [ 52.75883, 17.30064 ], [ 52.82471, 17.25783 ], [ 53.10889, 16.65043 ], [ 52.52888, 16.45209 ], [ 52.42302, 16.39703 ], [ 52.2979, 16.27733 ], [ 52.22308, 16.16962 ], [ 52.15418, 15.98092 ], [ 52.21804, 15.65233 ], [ 52.20311, 15.62288 ] ] ] ] } },
{ "type": "Feature", "properties": { "iso3": "SYR", "name": "Syria" }, "geometry": { "type": "Polygon", "coordinates": [ [ [ 42.35573, 37.10877 ], [ 42.36903, 37.05553 ], [ 42.13612, 36.86026 ], [ 41.82748, 36.59766 ], [ 41.41173, 36.52221 ], [ 41.30896, 36.38635 ], [ 41.29002, 36.26406 ], [ 41.25999, 36.07016 ], [ 41.36536, 35.84423 ], [ 41.37962, 35.65996 ], [ 41.32404, 35.55385 ], [ 41.26183, 35.44437 ], [ 41.21946, 35.10941 ], [ 41.22804, 34.78913 ], [ 40.98444, 34.40979 ], [ 40.63599, 34.3117 ], [ 40.16275, 34.07586 ], [ 39.72881, 33.85775 ], [ 39.13386, 33.55189 ], [ 38.79367, 33.37506 ], [ 37.92295, 32.91067 ], [ 37.79317, 32.89025 ], [ 37.73489, 32.76397 ], [ 37.49408, 32.69255 ], [ 37.35321, 32.56503 ], [ 37.2269, 32.56228 ], [ 37.07178, 32.4356 ], [ 36.96015, 32.42956 ], [ 36.90338, 32.37276 ], [ 36.84993, 32.31927 ], [ 36.51336, 32.35735 ], [ 36.44791, 32.37276 ], [ 36.40363, 32.38319 ], [ 36.19414, 32.52096 ], [ 36.08908, 32.51567 ], [ 36.01481, 32.6521 ], [ 35.92882, 32.71326 ], [ 35.79879, 32.75376 ], [ 35.67206, 32.69101 ], [ 35.64345, 32.69931 ], [ 35.65664, 32.78014 ], [ 35.62129, 32.90343 ], [ 35.66877, 33.23104 ], [ 35.62384, 33.24295 ], [ 35.79561, 33.35227 ], [ 35.83806, 33.41111 ], [ 35.88442, 33.42985 ], [ 35.90065, 33.44287 ], [ 35.95597, 33.52798 ], [ 36.04075, 33.5702 ], [ 35.94787, 33.65078 ], [ 35.97745, 33.72145 ], [ 36.07175, 33.82099 ], [ 36.13056, 33.83861 ], [ 36.379, 33.83561 ], [ 36.37329, 33.86616 ], [ 36.3007, 33.90404 ], [ 36.30085, 33.93981 ], [ 36.41573, 34.04165 ], [ 36.49371, 34.06508 ], [ 36.625, 34.20389 ], [ 36.54008, 34.35967 ], [ 36.55565, 34.41088 ], [ 36.43374, 34.50079 ], [ 36.34604, 34.50534 ], [ 36.45116, 34.62582 ], [ 36.3327, 34.68034 ], [ 36.27063, 34.63292 ], [ 36.11429, 34.63357 ], [ 35.97547, 34.63389 ], [ 35.87439, 34.90423 ], [ 35.89233, 35.10059 ], [ 35.94664, 35.19557 ], [ 35.93367, 35.25746 ], [ 35.90758, 35.4161 ], [ 35.77754, 35.50855 ], [ 35.73968, 35.58007 ], [ 35.83689, 35.74133 ], [ 35.81741, 35.84794 ], [ 35.91735, 35.92839 ], [ 36.02817, 35.87937 ], [ 36.02854, 35.87888 ], [ 36.05144, 35.86908 ], [ 36.16406, 35.81927 ], [ 36.218, 35.94702 ], [ 36.24564, 35.96129 ], [ 36.37218, 36.02665 ], [ 36.3824, 36.10149 ], [ 36.39631, 36.20332 ], [ 36.39667, 36.20595 ], [ 36.53096, 36.23724 ], [ 36.60092, 36.22498 ], [ 36.6278, 36.22028 ], [ 36.64231, 36.22937 ], [ 36.67475, 36.24969 ], [ 36.67853, 36.25206 ], [ 36.67832, 36.25719 ], [ 36.67769, 36.2723 ], [ 36.67679, 36.29431 ], [ 36.66269, 36.31522 ], [ 36.55981, 36.46784 ], [ 36.55945, 36.46838 ], [ 36.55952, 36.46889 ], [ 36.56974, 36.54082 ], [ 36.58038, 36.61576 ], [ 36.63424, 36.74976 ], [ 36.66519, 36.82677 ], [ 36.70726, 36.82675 ], [ 36.71236, 36.82675 ], [ 36.75344, 36.81718 ], [ 36.95251, 36.77077 ], [ 36.96991, 36.76671 ], [ 36.97984, 36.76053 ], [ 37.0017, 36.74691 ], [ 37.03196, 36.72807 ], [ 37.03143, 36.72477 ], [ 37.02342, 36.67459 ], [ 37.07219, 36.64325 ], [ 37.11583, 36.66803 ], [ 37.12204, 36.67155 ], [ 37.23554, 36.67275 ], [ 37.31323, 36.66066 ], [ 37.45849, 36.63806 ], [ 37.50785, 36.67428 ], [ 37.5274, 36.68862 ], [ 37.57274, 36.70581 ], [ 37.76189, 36.75789 ], [ 38.02504, 36.83034 ], [ 38.11738, 36.88123 ], [ 38.15743, 36.9033 ], [ 38.2594, 36.91893 ], [ 38.30917, 36.90668 ], [ 38.51158, 36.85685 ], [ 38.63185, 36.76536 ], [ 38.68386, 36.72589 ], [ 38.72341, 36.70464 ], [ 38.77375, 36.69818 ], [ 38.92163, 36.69528 ], [ 38.96531, 36.69698 ], [ 39.00387, 36.70553 ], [ 39.03772, 36.70761 ], [ 39.09391, 36.69623 ], [ 39.17096, 36.67005 ], [ 39.22161, 36.66546 ], [ 39.25803, 36.66818 ], [ 39.30971, 36.67847 ], [ 39.43887, 36.69746 ], [ 39.60775, 36.72254 ], [ 39.63466, 36.726 ], [ 39.64046, 36.7274 ], [ 39.90525, 36.79089 ], [ 40.2334, 36.91143 ], [ 40.42461, 37.0138 ], [ 40.7167, 37.10596 ], [ 40.75647, 37.11069 ], [ 40.85165, 37.12203 ], [ 40.91128, 37.12913 ], [ 40.92886, 37.12647 ], [ 41.01274, 37.11382 ], [ 41.06485, 37.10596 ], [ 41.16897, 37.09151 ], [ 41.18267, 37.08285 ], [ 41.2119, 37.06438 ], [ 41.26862, 37.07593 ], [ 41.28965, 37.08021 ], [ 41.32882, 37.08004 ], [ 41.51575, 37.07925 ], [ 41.57132, 37.09661 ], [ 41.60122, 37.10596 ], [ 41.66457, 37.11831 ], [ 42.03669, 37.18711 ], [ 42.17738, 37.28493 ], [ 42.18518, 37.29035 ], [ 42.20881, 37.30678 ], [ 42.25797, 37.2788 ], [ 42.32542, 37.2404 ], [ 42.33062, 37.16906 ], [ 42.35638, 37.14033 ], [ 42.35694, 37.13208 ], [ 42.35573, 37.10877 ] ] ] } },
{ "type": "Feature", "properties": { "iso3": "OMN", "name": "Oman" }, "geometry": { "type": "MultiPolygon", "coordinates": [ [ [ [ 55.89831, 17.48068 ], [ 55.86451, 17.46716 ], [ 55.81303, 17.50224 ], [ 55.85457, 17.51698 ], [ 55.89831, 17.48068 ] ] ], [ [ [ 55.96262, 17.50535 ], [ 56.03275, 17.54588 ], [ 56.0883, 17.52808 ], [ 56.03981, 17.48626 ], [ 55.96262, 17.50535 ] ] ], [ [ [ 58.72596, 20.22278 ], [ 58.65238, 20.17266 ], [ 58.62616, 20.30237 ], [ 58.90606, 20.64166 ], [ 58.93991, 20.51302 ], [ 58.84969, 20.428 ], [ 58.72596, 20.22278 ] ] ], [ [ [ 56.32872, 24.91286 ], [ 56.32328, 24.97236 ], [ 56.37533, 24.98058 ], [ 56.50644, 24.67167 ], [ 56.67562, 24.44135 ], [ 56.69304, 24.42544 ], [ 56.93447, 24.12226 ], [ 57.12595, 23.96949 ], [ 57.65605, 23.77847 ], [ 57.78503, 23.77385 ], [ 57.85222, 23.72524 ], [ 57.94559, 23.70811 ], [ 58.1243, 23.70579 ], [ 58.33398, 23.60997 ], [ 58.51068, 23.63946 ], [ 58.57813, 23.62277 ], [ 58.63625, 23.5618 ], [ 58.75326, 23.51177 ], [ 58.80046, 23.40589 ], [ 58.90475, 23.31903 ], [ 59.07902, 23.04134 ], [ 59.19809, 22.95515 ], [ 59.28799, 22.77803 ], [ 59.46554, 22.61663 ], [ 59.54725, 22.56897 ], [ 59.79635, 22.52341 ], [ 59.83172, 22.43303 ], [ 59.81754, 22.27041 ], [ 59.68878, 22.08171 ], [ 59.63929, 21.9373 ], [ 59.49891, 21.75711 ], [ 59.46266, 21.68497 ], [ 59.42718, 21.61438 ], [ 59.33841, 21.43774 ], [ 59.03334, 21.24697 ], [ 58.98306, 21.19604 ], [ 58.95356, 21.16615 ], [ 58.86551, 21.07695 ], [ 58.796, 20.96677 ], [ 58.73259, 20.75673 ], [ 58.59219, 20.63231 ], [ 58.52166, 20.43111 ], [ 58.4642, 20.37269 ], [ 58.4112, 20.3567 ], [ 58.21528, 20.40179 ], [ 58.2797, 20.56074 ], [ 58.19888, 20.62261 ], [ 58.1047, 20.58479 ], [ 58.05697, 20.46674 ], [ 57.95587, 20.39234 ], [ 57.96022, 20.32068 ], [ 57.94208, 20.30813 ], [ 57.87491, 20.26168 ], [ 57.82631, 20.18794 ], [ 57.8204, 20.12305 ], [ 57.8039, 19.98085 ], [ 57.69182, 19.72586 ], [ 57.71748, 19.65112 ], [ 57.70844, 19.52113 ], [ 57.71838, 19.49172 ], [ 57.75217, 19.39176 ], [ 57.74979, 19.24345 ], [ 57.7978, 19.13544 ], [ 57.81601, 18.99907 ], [ 57.67765, 18.94177 ], [ 57.23652, 18.9061 ], [ 57.03968, 18.85452 ], [ 56.81621, 18.75431 ], [ 56.6413, 18.56009 ], [ 56.53742, 18.13122 ], [ 56.35396, 17.95694 ], [ 56.3333, 17.9254 ], [ 56.17382, 17.93748 ], [ 55.65677, 17.88981 ], [ 55.44209, 17.82118 ], [ 55.36972, 17.68317 ], [ 55.27242, 17.60792 ], [ 55.23215, 17.53587 ], [ 55.23429, 17.48002 ], [ 55.29757, 17.38918 ], [ 55.24935, 17.23359 ], [ 55.0802, 17.04881 ], [ 54.94971, 16.98446 ], [ 54.78001, 16.94568 ], [ 54.65604, 17.01866 ], [ 54.51381, 17.03275 ], [ 54.07921, 16.99544 ], [ 53.95284, 16.90556 ], [ 53.76077, 16.86963 ], [ 53.62483, 16.7651 ], [ 53.3437, 16.73091 ], [ 53.10889, 16.65043 ], [ 52.82471, 17.25783 ], [ 52.75883, 17.30064 ], [ 52.7646, 17.38656 ], [ 52.0, 19.0 ], [ 52.00151, 19.0005 ], [ 53.47515, 19.49172 ], [ 53.51958, 19.50653 ], [ 55.0, 20.0 ], [ 55.04062, 20.12305 ], [ 55.10171, 20.30813 ], [ 55.38671, 21.16615 ], [ 55.39664, 21.19604 ], [ 55.43174, 21.30172 ], [ 55.53381, 21.61438 ], [ 55.55685, 21.68497 ], [ 55.65972, 22.0001 ], [ 55.21137, 22.70542 ], [ 55.22783, 23.05971 ], [ 55.37052, 23.33605 ], [ 55.56899, 23.63396 ], [ 55.4999, 23.95026 ], [ 55.7255, 24.05366 ], [ 55.83328, 24.02084 ], [ 56.0073, 24.07302 ], [ 55.94531, 24.2156 ], [ 55.83341, 24.20802 ], [ 55.77232, 24.24599 ], [ 55.83056, 24.33611 ], [ 55.81928, 24.44135 ], [ 55.76772, 24.54599 ], [ 55.83092, 24.67946 ], [ 55.82069, 24.79365 ], [ 55.83001, 24.93438 ], [ 55.96114, 25.00563 ], [ 56.04496, 24.95701 ], [ 56.057, 24.87205 ], [ 56.00255, 24.86233 ], [ 56.07638, 24.73945 ], [ 56.10366, 24.73602 ], [ 56.17824, 24.76881 ], [ 56.20362, 24.82381 ], [ 56.32872, 24.91286 ] ] ], [ [ [ 56.33576, 25.26443 ], [ 56.28565, 25.23658 ], [ 56.23079, 25.23885 ], [ 56.22411, 25.26321 ], [ 56.26662, 25.32932 ], [ 56.34898, 25.3065 ], [ 56.33576, 25.26443 ] ] ], [ [ [ 56.41535, 25.93248 ], [ 56.28959, 25.7188 ], [ 56.27102, 25.62589 ], [ 56.28216, 25.61517 ], [ 56.26615, 25.60628 ], [ 56.16087, 25.66029 ], [ 56.14255, 25.81819 ], [ 56.18539, 25.99604 ], [ 56.15142, 26.0594 ], [ 56.08646, 26.05045 ], [ 56.19483, 26.22056 ], [ 56.29974, 26.21287 ], [ 56.36257, 26.34842 ], [ 56.43618, 26.32541 ], [ 56.4536, 26.17594 ], [ 56.36736, 26.18978 ], [ 56.34915, 26.15119 ], [ 56.43868, 26.07688 ], [ 56.41113, 26.01912 ], [ 56.41535, 25.93248 ] ] ] ] } }
]
}
