{
"type": "FeatureCollection",
"name": "me_gulf_disputed",
"crs": { "type": "name", "properties": { "name": "urn:ogc:def:crs:OGC:1.3:CRS84" } },
"xy_coordinate_resolution": 1e-05,
"features": [
{ "type": "Feature", "properties": { "pol_stat": 5 }, "geometry": { "type": "MultiLineString", "coordinates": [ [ [ 34.2675, 31.22013 ], [ 34.29475, 31.24245 ], [ 34.32581, 31.25797 ], [ 34.36702, 31.30744 ], [ 34.37299, 31.37375 ], [ 34.38215, 31.39116 ], [ 34.42677, 31.42717 ], [ 34.51814, 31.50172 ], [ 34.55999, 31.5417 ], [ 34.49125, 31.59499 ] ], [ [ 35.12318, 31.711 ], [ 35.02191, 31.66389 ], [ 34.96091, 31.60304 ], [ 34.88968, 31.4003 ], [ 34.93011, 31.34858 ], [ 35.20701, 31.3702 ], [ 35.38829, 31.48321 ], [ 35.47598, 31.49312 ] ], [ [ 35.55492, 32.38902 ], [ 35.43334, 32.41763 ], [ 35.38199, 32.50596 ], [ 35.20919, 32.54244 ], [ 35.07564, 32.4526 ], [ 35.04172, 32.37769 ], [ 35.00401, 32.26579 ], [ 34.9745, 32.1782 ], [ 34.98163, 32.05099 ], [ 34.9863, 31.96778 ] ] ] } },
{ "type": "Feature", "properties": { "pol_stat": 5 }, "geometry": { "type": "LineString", "coordinates": [ [ 34.9863, 31.96778 ], [ 35.0133, 31.88004 ], [ 34.99433, 31.82445 ], [ 35.05287, 31.82659 ], [ 35.17979, 31.78222 ], [ 35.12318, 31.711 ] ] } },
{ "type": "Feature", "properties": { "pol_stat": 5 }, "geometry": { "type": "LineString", "coordinates": [ [ 35.12318, 31.711 ], [ 35.23393, 31.76251 ], [ 35.21511, 31.80226 ], [ 35.11178, 31.8357 ], [ 35.07598, 31.84729 ], [ 35.02005, 31.8357 ], [ 35.00392, 31.8357 ], [ 35.03791, 31.90197 ], [ 34.9863, 31.96778 ] ] } },
{ "type": "Feature", "properties": { "pol_stat": 2 }, "geometry": { "type": "LineString", "coordinates": [ [ 35.61959, 23.1461 ], [ 35.50963, 23.05018 ], [ 35.21095, 22.79446 ], [ 34.94757, 22.84866 ], [ 34.68929, 22.30766 ], [ 34.472, 22.25678 ], [ 34.15939, 22.20118 ], [ 34.07986, 22.00001 ] ] } },
{ "type": "Feature", "properties": { "pol_stat": 2 }, "geometry": { "type": "MultiLineString", "coordinates": [ [ [ 34.10597, 9.5 ], [ 33.88223, 9.5173 ], [ 33.90416, 9.71629 ], [ 33.96183, 9.81528 ], [ 33.9928, 9.94792 ], [ 33.96428, 10.13976 ], [ 33.89908, 10.18283 ], [ 33.80611, 10.32852 ], [ 33.66942, 10.44379 ], [ 33.5189, 10.63676 ], [ 33.25698, 10.78003 ], [ 33.20773, 11.20306 ], [ 33.14136, 11.43851 ], [ 33.17084, 11.67454 ], [ 33.28126, 12.20988 ], [ 33.25011, 12.21992 ], [ 32.74625, 12.2321 ], [ 32.75556, 11.9972 ], [ 32.73099, 11.95386 ], [ 32.09659, 11.95105 ], [ 32.38729, 11.69952 ], [ 32.39189, 11.19847 ], [ 32.45758, 11.03829 ], [ 32.15451, 10.74454 ], [ 31.9873, 10.64296 ], [ 31.78745, 10.30317 ], [ 31.33701, 9.79214 ], [ 31.21487, 9.75341 ], [ 30.86258, 9.74887 ], [ 30.83427, 9.71175 ], [ 30.49867, 9.97958 ], [ 30.01973, 10.27503 ], [ 29.92184, 10.27822 ], [ 29.54987, 10.07923 ], [ 29.52517, 9.7577 ], [ 29.09462, 9.74808 ], [ 29.00037, 9.67023 ] ], [ [ 27.90722, 9.61016 ], [ 27.15125, 9.62532 ], [ 26.67717, 9.49471 ], [ 26.41558, 9.55857 ], [ 26.34415, 9.60012 ], [ 26.21923, 9.90128 ], [ 26.04292, 10.1161 ], [ 25.93884, 10.18596 ], [ 25.929, 10.35328 ], [ 25.84593, 10.41398 ], [ 25.41829, 10.38756 ], [ 25.09957, 10.30842 ], [ 25.04383, 10.16759 ], [ 25.06946, 10.09159 ], [ 25.0, 9.96725 ] ] ] } },
{ "type": "Feature", "properties": { "pol_stat": 2 }, "geometry": { "type": "LineString", "coordinates": [ [ 33.16666, 22.0 ], [ 33.46885, 21.78486 ], [ 33.55292, 21.725 ], [ 33.99178, 21.77046 ], [ 34.07986, 22.00001 ] ] } }
]
}
